[{"OBJECT_NAME":"DAMPE","OBJECT_ID":"2015-078A","EPOCH":"2026-03-09T23:55:00.527232","MEAN_MOTION":15.30502084,"ECCENTRICITY":0.00138005,"INCLINATION":97.4588,"RA_OF_ASC_NODE":73.9866,"ARG_OF_PERICENTER":70.6942,"MEAN_ANOMALY":289.579,"EPHEMERIS_TYPE":0,"CLASSIFICATION_TYPE":"U","NORAD_CAT_ID":41173,"ELEMENT_SET_NO":999,"REV_AT_EPOCH":56937,"BSTAR":9.1158173e-5,"MEAN_MOTION_DOT":2.617e-5,"MEAN_MOTION_DDOT":0},{"OBJECT_NAME":"STARLINK-31607","OBJECT_ID":"2024-062W","EPOCH":"2026-03-09T19:54:06.653088","MEAN_MOTION":15.30206188,"ECCENTRICITY":9.771e-5,"INCLINATION":53.16,"RA_OF_ASC_NODE":254.95,"ARG_OF_PERICENTER":87.6383,"MEAN_ANOMALY":272.473,"EPHEMERIS_TYPE":0,"CLASSIFICATION_TYPE":"U","NORAD_CAT_ID":59394,"ELEMENT_SET_NO":999,"REV_AT_EPOCH":10968,"BSTAR":0.00013237241,"MEAN_MOTION_DOT":3.564e-5,"MEAN_MOTION_DDOT":0}]
